{"type": "FeatureCollection", "features": [ {"type": "Feature", "properties": {"norad_id": 36074, "name": "COSMOS 2251 DEB", "group": "cosmos-2251-debris", "lat": -18.109444392688903, "lon": -31.269728921445203, "alt_km": 747.7189768498401, "timestamp": "2025-12-16T03:53:27.452465+00:00", "meta": {"OBJECT_NAME": "COSMOS 2251 DEB", "OBJECT_ID": "1993-036AYM", "EPOCH": "2025-12-04T07:35:54.379968", "MEAN_MOTION": 14.43651509, "ECCENTRICITY": 0.0041318, "INCLINATION": 73.9929, "RA_OF_ASC_NODE": 356.1864, "ARG_OF_PERICENTER": 90.6412, "MEAN_ANOMALY": 269.9479, "EPHEMERIS_TYPE": 0, "CLASSIFICATION_TYPE": "U", "NORAD_CAT_ID": 36074, "ELEMENT_SET_NO": 999, "REV_AT_EPOCH": 85788, "BSTAR": 0.0017767, "MEAN_MOTION_DOT": 6.071e-05, "MEAN_MOTION_DDOT": 0}, "tle": {"line1": "1 36074U 93036AYM 25338.31660162  .00006071  00000+0  17767-2 0  9990", "line2": "2 36074  73.9929 356.1864 0041318  90.6412 269.9479 14.43651509857883"}}, "geometry": {"type": "Point", "coordinates": [-31.269728921445203, -18.109444392688903]}}, {"type": "Feature", "properties": {"norad_id": 36366, "name": "COSMOS 2251 DEB", "group": "cosmos-2251-debris", "lat": 30.481313129154465, "lon": 77.13911993690361, "alt_km": 832.0505701865577, "timestamp": "2025-12-16T03:53:27.452475+00:00", "meta": {"OBJECT_NAME": "COSMOS 2251 DEB", "OBJECT_ID": "1993-036AYT", "EPOCH": "2025-12-14T10:59:45.440448", "MEAN_MOTION": 14.33413986, "ECCENTRICITY": 0.00904998, "INCLINATION": 74.0651, "RA_OF_ASC_NODE": 269.929, "ARG_OF_PERICENTER": 297.9543, "MEAN_ANOMALY": 61.2469, "EPHEMERIS_TYPE": 0, "CLASSIFICATION_TYPE": "U", "NORAD_CAT_ID": 36366, "ELEMENT_SET_NO": 999, "REV_AT_EPOCH": 86313, "BSTAR": 0.0019589363, "MEAN_MOTION_DOT": 5.636e-05, "MEAN_MOTION_DDOT": 0}, "tle": {"line1": "1 36366U 93036AYT 25348.45816482  .00005636  00000+0  19589-2 0  9998", "line2": "2 36366  74.0651 269.9290 0090499 297.9543  61.2469 14.33413986863137"}}, "geometry": {"type": "Point", "coordinates": [77.13911993690361, 30.481313129154465]}}, {"type": "Feature", "properties": {"norad_id": 36367, "name": "COSMOS 2251 DEB", "group": "cosmos-2251-debris", "lat": -31.37873301385235, "lon": -144.36185860850134, "alt_km": 778.8931164154756, "timestamp": "2025-12-16T03:53:27.452485+00:00", "meta": {"OBJECT_NAME": "COSMOS 2251 DEB", "OBJECT_ID": "1993-036AYU", "EPOCH": "2025-12-14T22:36:07.424640", "MEAN_MOTION": 13.8634274, "ECCENTRICITY": 0.02622424, "INCLINATION": 74.1011, "RA_OF_ASC_NODE": 227.7062, "ARG_OF_PERICENTER": 300.1243, "MEAN_ANOMALY": 57.4125, "EPHEMERIS_TYPE": 0, "CLASSIFICATION_TYPE": "U", "NORAD_CAT_ID": 36367, "ELEMENT_SET_NO": 999, "REV_AT_EPOCH": 57560, "BSTAR": 0.0012671505, "MEAN_MOTION_DOT": 1.897e-05, "MEAN_MOTION_DDOT": 0}, "tle": {"line1": "1 36367U 93036AYU 25348.94175260  .00001897  00000+0  12672-2 0  9996", "line2": "2 36367  74.1011 227.7062 0262242 300.1243  57.4125 13.86342740575603"}}, "geometry": {"type": "Point", "coordinates": [-144.36185860850134, -31.37873301385235]}}, {"type": "Feature", "properties": {"norad_id": 36369, "name": "COSMOS 2251 DEB", "group": "cosmos-2251-debris", "lat": 55.74182777548348, "lon": -140.80505916201653, "alt_km": 636.3899728047372, "timestamp": "2025-12-16T03:53:27.452495+00:00", "meta": {"OBJECT_NAME": "COSMOS 2251 DEB", "OBJECT_ID": "1993-036AYW", "EPOCH": "2025-12-13T11:48:09.562176", "MEAN_MOTION": 14.73593845, "ECCENTRICITY": 0.00111215, "INCLINATION": 74.0315, "RA_OF_ASC_NODE": 69.2624, "ARG_OF_PERICENTER": 147.3699, "MEAN_ANOMALY": 212.8163, "EPHEMERIS_TYPE": 0, "CLASSIFICATION_TYPE": "U", "NORAD_CAT_ID": 36369, "ELEMENT_SET_NO": 999, "REV_AT_EPOCH": 85933, "BSTAR": 0.0023523772, "MEAN_MOTION_DOT": 0.00015337, "MEAN_MOTION_DDOT": 0}, "tle": {"line1": "1 36369U 93036AYW 25347.49177734  .00015337  00000+0  23524-2 0  9997", "line2": "2 36369  74.0315  69.2624 0011121 147.3699 212.8163 14.73593845859333"}}, "geometry": {"type": "Point", "coordinates": [-140.80505916201653, 55.74182777548348]}}, {"type": "Feature", "properties": {"norad_id": 36371, "name": "COSMOS 2251 DEB", "group": "cosmos-2251-debris", "lat": -5.774552979188074, "lon": 153.22187711455948, "alt_km": 668.6149826192286, "timestamp": "2025-12-16T03:53:27.452506+00:00", "meta": {"OBJECT_NAME": "COSMOS 2251 DEB", "OBJECT_ID": "1993-036AYY", "EPOCH": "2025-12-14T17:38:02.083776", "MEAN_MOTION": 14.70655983, "ECCENTRICITY": 0.00095601, "INCLINATION": 74.0125, "RA_OF_ASC_NODE": 157.6564, "ARG_OF_PERICENTER": 196.4199, "MEAN_ANOMALY": 163.6664, "EPHEMERIS_TYPE": 0, "CLASSIFICATION_TYPE": "U", "NORAD_CAT_ID": 36371, "ELEMENT_SET_NO": 999, "REV_AT_EPOCH": 71474, "BSTAR": 0.001555296, "MEAN_MOTION_DOT": 9.456e-05, "MEAN_MOTION_DDOT": 0}, "tle": {"line1": "1 36371U 93036AYY 25348.73474634  .00009456  00000+0  15553-2 0  9995", "line2": "2 36371  74.0125 157.6564 0009560 196.4199 163.6664 14.70655983714747"}}, "geometry": {"type": "Point", "coordinates": [153.22187711455948, -5.774552979188074]}}, {"type": "Feature", "properties": {"norad_id": 36379, "name": "COSMOS 2251 DEB", "group": "cosmos-2251-debris", "lat": 73.94546051734476, "lon": 35.50383412910908, "alt_km": 734.585493756098, "timestamp": "2025-12-16T03:53:27.452516+00:00", "meta": {"OBJECT_NAME": "COSMOS 2251 DEB", "OBJECT_ID": "1993-036AZG", "EPOCH": "2025-12-14T15:32:01.694112", "MEAN_MOTION": 14.36082107, "ECCENTRICITY": 0.00446626, "INCLINATION": 74.0126, "RA_OF_ASC_NODE": 303.3155, "ARG_OF_PERICENTER": 71.6898, "MEAN_ANOMALY": 110.8401, "EPHEMERIS_TYPE": 0, "CLASSIFICATION_TYPE": "U", "NORAD_CAT_ID": 36379, "ELEMENT_SET_NO": 999, "REV_AT_EPOCH": 64855, "BSTAR": 0.00036106719, "MEAN_MOTION_DOT": 1.037e-05, "MEAN_MOTION_DDOT": 0}, "tle": {"line1": "1 36379U 93036AZG 25348.64724183  .00001037  00000+0  36107-3 0  9996", "line2": "2 36379  74.0126 303.3155 0044662  71.6898 110.8401 14.36082107648556"}}, "geometry": {"type": "Point", "coordinates": [35.50383412910908, 73.94546051734476]}}, {"type": "Feature", "properties": {"norad_id": 36385, "name": "COSMOS 2251 DEB", "group": "cosmos-2251-debris", "lat": 45.283819970840334, "lon": -49.03302733845989, "alt_km": 746.4475154114798, "timestamp": "2025-12-16T03:53:27.452527+00:00", "meta": {"OBJECT_NAME": "COSMOS 2251 DEB", "OBJECT_ID": "1993-036AZN", "EPOCH": "2025-12-14T12:09:34.420896", "MEAN_MOTION": 14.72609971, "ECCENTRICITY": 0.0141345, "INCLINATION": 73.9693, "RA_OF_ASC_NODE": 151.0837, "ARG_OF_PERICENTER": 325.0853, "MEAN_ANOMALY": 34.1107, "EPHEMERIS_TYPE": 0, "CLASSIFICATION_TYPE": "U", "NORAD_CAT_ID": 36385, "ELEMENT_SET_NO": 999, "REV_AT_EPOCH": 85128, "BSTAR": 0.001300457, "MEAN_MOTION_DOT": 9.676e-05, "MEAN_MOTION_DDOT": 0}, "tle": {"line1": "1 36385U 93036AZN 25348.50664839  .00009676  00000+0  13005-2 0  9997", "line2": "2 36385  73.9693 151.0837 0141345 325.0853  34.1107 14.72609971851289"}}, "geometry": {"type": "Point", "coordinates": [-49.03302733845989, 45.283819970840334]}}, {"type": "Feature", "properties": {"norad_id": 36420, "name": "COSMOS 2251 DEB", "group": "cosmos-2251-debris", "lat": -18.79261137529881, "lon": -96.39608305520716, "alt_km": 761.0893129126307, "timestamp": "2025-12-16T03:53:27.452538+00:00", "meta": {"OBJECT_NAME": "COSMOS 2251 DEB", "OBJECT_ID": "1993-036AZT", "EPOCH": "2025-12-09T05:12:09.080064", "MEAN_MOTION": 14.36895704, "ECCENTRICITY": 0.001793, "INCLINATION": 74.0374, "RA_OF_ASC_NODE": 281.9559, "ARG_OF_PERICENTER": 10.5601, "MEAN_ANOMALY": 57.255, "EPHEMERIS_TYPE": 0, "CLASSIFICATION_TYPE": "U", "NORAD_CAT_ID": 36420, "ELEMENT_SET_NO": 999, "REV_AT_EPOCH": 84986, "BSTAR": 0.00029505, "MEAN_MOTION_DOT": 8.48e-06, "MEAN_MOTION_DDOT": 0}, "tle": {"line1": "1 36420U 93036AZT 25343.21677176  .00000848  00000+0  29505-3 0  9993", "line2": "2 36420  74.0374 281.9559 0017930  10.5601  57.2550 14.36895704849860"}}, "geometry": {"type": "Point", "coordinates": [-96.39608305520716, -18.79261137529881]}}, {"type": "Feature", "properties": {"norad_id": 36430, "name": "COSMOS 2251 DEB", "group": "cosmos-2251-debris", "lat": -63.939575105201186, "lon": -41.769998816291974, "alt_km": 736.0297803043068, "timestamp": "2025-12-16T03:53:27.452548+00:00", "meta": {"OBJECT_NAME": "COSMOS 2251 DEB", "OBJECT_ID": "1993-036BAD", "EPOCH": "2025-12-15T01:29:56.245920", "MEAN_MOTION": 14.27797993, "ECCENTRICITY": 0.00974903, "INCLINATION": 74.0045, "RA_OF_ASC_NODE": 104.313, "ARG_OF_PERICENTER": 253.9195, "MEAN_ANOMALY": 105.1202, "EPHEMERIS_TYPE": 0, "CLASSIFICATION_TYPE": "U", "NORAD_CAT_ID": 36430, "ELEMENT_SET_NO": 999, "REV_AT_EPOCH": 64590, "BSTAR": 0.00050435869, "MEAN_MOTION_DOT": 1.285e-05, "MEAN_MOTION_DDOT": 0}, "tle": {"line1": "1 36430U 93036BAD 25349.06245655  .00001285  00000+0  50436-3 0  9999", "line2": "2 36430  74.0045 104.3130 0097490 253.9195 105.1202 14.27797993645906"}}, "geometry": {"type": "Point", "coordinates": [-41.769998816291974, -63.939575105201186]}}, {"type": "Feature", "properties": {"norad_id": 36437, "name": "COSMOS 2251 DEB", "group": "cosmos-2251-debris", "lat": 59.132793949179984, "lon": 56.12576302186118, "alt_km": 668.3441348097922, "timestamp": "2025-12-16T03:53:27.452559+00:00", "meta": {"OBJECT_NAME": "COSMOS 2251 DEB", "OBJECT_ID": "1993-036BAL", "EPOCH": "2025-12-14T09:09:30.905280", "MEAN_MOTION": 14.70733296, "ECCENTRICITY": 0.00232569, "INCLINATION": 73.9432, "RA_OF_ASC_NODE": 30.7933, "ARG_OF_PERICENTER": 262.2827, "MEAN_ANOMALY": 97.5703, "EPHEMERIS_TYPE": 0, "CLASSIFICATION_TYPE": "U", "NORAD_CAT_ID": 36437, "ELEMENT_SET_NO": 999, "REV_AT_EPOCH": 66075, "BSTAR": 0.0015477574, "MEAN_MOTION_DOT": 9.458e-05, "MEAN_MOTION_DDOT": 0}, "tle": {"line1": "1 36437U 93036BAL 25348.38160770  .00009458  00000+0  15478-2 0  9990", "line2": "2 36437  73.9432  30.7933 0023256 262.2827  97.5703 14.70733296660752"}}, "geometry": {"type": "Point", "coordinates": [56.12576302186118, 59.132793949179984]}}]}